[{"OBJECT_NAME":"STARLINK-2543","OBJECT_ID":"2021-036C","EPOCH":"2026-03-09T06:51:55.231488","MEAN_MOTION":15.30234914,"ECCENTRICITY":0.00014043,"INCLINATION":53.1607,"RA_OF_ASC_NODE":26.2778,"ARG_OF_PERICENTER":110.4197,"MEAN_ANOMALY":249.6954,"EPHEMERIS_TYPE":0,"CLASSIFICATION_TYPE":"U","NORAD_CAT_ID":48278,"ELEMENT_SET_NO":999,"REV_AT_EPOCH":26905,"BSTAR":0.00047597044,"MEAN_MOTION_DOT":0.00013779,"MEAN_MOTION_DDOT":0},{"OBJECT_NAME":"STARLINK-31630","OBJECT_ID":"2024-050T","EPOCH":"2026-03-09T13:39:04.940352","MEAN_MOTION":15.30200807,"ECCENTRICITY":0.0001409,"INCLINATION":53.16,"RA_OF_ASC_NODE":168.5079,"ARG_OF_PERICENTER":92.3163,"MEAN_ANOMALY":267.7999,"EPHEMERIS_TYPE":0,"CLASSIFICATION_TYPE":"U","NORAD_CAT_ID":59271,"ELEMENT_SET_NO":999,"REV_AT_EPOCH":11071,"BSTAR":-5.7526e-5,"MEAN_MOTION_DOT":-2.063e-5,"MEAN_MOTION_DDOT":0}]
